{"type":"FeatureCollection","crs":{"type":"name","properties":{"name":"EPSG:29902"}},"features":[{"type":"Feature","id":1,"geometry":{"type":"Polygon","coordinates":[[[-12288.794400000013,1675.7446999996901],[375366.81170000043,4468.652499999851],[375366.81170000043,74849.929700000212],[408323.12399999984,115626.38399999961],[407764.54250000045,194944.96619999968],[408323.12399999984,277056.4561999999],[404971.63460000046,335148.93899999931],[402178.7268000003,369222.41449999996],[378159.71949999966,404971.63460000046],[349113.47809999995,437369.36539999954],[328445.96019999962,461946.9542999994],[279290.78249999974,482055.89059999958],[-13405.957600000314,480938.72749999911],[-12288.794400000013,1675.7446999996901]]]},"properties":{"OBJECTID":1,"Shape_Length":1708052.7334597381,"Shape_Area":192323633990.24582}}]}